GLOBALSTAR M094         
1 39074U 13005C   25026.91247768 -.00000058  00000+0  25375-3 0  9999
2 39074  51.9941 252.2592 0000850  56.2160 303.8788 12.62267741554531
GLOBALSTAR M096         
1 39075U 13005D   25027.16326422 -.00000061  00000+0  23613-3 0  9990
2 39075  52.0086 299.9009 0000589  36.8912 323.1995 12.62267425553839
GLOBALSTAR M078         
1 39076U 13005E   25027.13622135 -.00000104  00000+0 -43744-6 0  9997
2 39076  51.9889  24.6770 0000765 210.9054 149.1768 12.62269442552312
GLOBALSTAR M095         
1 39077U 13005F   25027.16305627 -.00000096  00000+0  42888-4 0  9990
2 39077  51.9817  21.8651 0000304 258.1130 101.9702 12.62265711552329
GLOBALSTAR M087         
1 52888U 22064A   25026.87704811 -.00000107  00000+0 -18177-4 0  9993
2 52888  51.9778 164.1436 0000807 106.9186 253.1769 12.62233259127199
